OBJECT_NAME,OBJECT_ID,EPOCH,MEAN_MOTION,ECCENTRICITY,INCLINATION,RA_OF_ASC_NODE,ARG_OF_PERICENTER,MEAN_ANOMALY,EPHEMERIS_TYPE,CLASSIFICATION_TYPE,NORAD_CAT_ID,ELEMENT_SET_NO,REV_AT_EPOCH,BSTAR,MEAN_MOTION_DOT,MEAN_MOTION_DDOT
ONEWEB-0410,2022-012A,2026-06-05T07:05:13.319520,13.17647764,.00031632,87.9153,8.2217,86.0938,274.0555,0,U,51622,999,21213,.35059311E-4,.27E-6,0
ONEWEB-0411,2022-012B,2026-06-04T15:26:01.498560,13.10377974,.0001398,87.8849,38.7646,92.1017,268.0270,0,U,51623,999,20764,-.17603992E-3,-.49E-6,0
ONEWEB-0415,2022-012C,2026-06-04T17:11:12.073344,13.10378067,.00016927,87.8851,38.7497,94.6857,265.4464,0,U,51624,999,20765,-.55422137E-3,-.181E-5,0
ONEWEB-0416,2022-012D,2026-06-05T00:47:47.896800,13.10387310,.00019054,87.8847,38.7041,96.0178,264.1167,0,U,51625,999,20773,.42617078E-3,.161E-5,0
ONEWEB-0422,2022-012E,2026-06-05T01:51:46.125216,13.17650248,.00014118,87.9146,8.2662,66.2134,293.9146,0,U,51626,999,21221,.62202934E-4,.37E-6,0
ONEWEB-0423,2022-012F,2026-06-05T01:42:03.849696,13.17649479,.00019266,87.9144,8.2740,84.0363,276.0988,0,U,51627,999,21210,.12958567E-4,.18E-6,0
ONEWEB-0425,2022-012G,2026-06-04T15:52:21.995616,13.10374955,.00021815,87.8841,38.7616,84.4921,275.6455,0,U,51628,999,20768,.19088581E-2,.679E-5,0
ONEWEB-0428,2022-012H,2026-06-04T17:13:35.391936,13.10378341,.0001774,87.8848,38.7583,85.4669,274.6661,0,U,51629,999,20765,-.6224E-3,-.205E-5,0
ONEWEB-0431,2022-012J,2026-06-05T01:40:08.658624,13.10370095,.00012931,87.8836,38.6804,93.4714,266.6562,0,U,51630,999,20775,.13378239E-4,.17E-6,0
ONEWEB-0434,2022-012K,2026-06-04T15:57:19.793088,13.10374149,.00024717,87.8843,38.7856,80.8376,279.3031,0,U,51631,999,20768,.191905E-2,.683E-5,0
ONEWEB-0435,2022-012L,2026-06-04T16:09:01.437120,13.10396385,.00014591,87.8845,38.7720,72.8481,287.2806,0,U,51632,999,20767,.90729936E-2,.3182E-4,0
ONEWEB-0436,2022-012M,2026-06-05T06:57:55.954080,13.17650764,.00016199,87.9152,8.2116,85.4948,274.6368,0,U,51633,999,21211,-.11284163E-3,-.31E-6,0
ONEWEB-0438,2022-012N,2026-06-04T17:35:07.770912,13.10376671,.0002003,87.8849,38.7624,82.0585,278.0769,0,U,51634,999,20771,.18476E-2,.658E-5,0
ONEWEB-0439,2022-012P,2026-06-04T15:49:57.376704,13.10375722,.00018428,87.8848,38.7626,80.1331,280.0004,0,U,51635,999,20768,.19789844E-2,.704E-5,0
ONEWEB-0442,2022-012Q,2026-06-05T06:47:00.493440,13.17648713,.00024018,87.9143,8.2466,88.9625,271.1781,0,U,51636,999,21210,.10176813E-3,.52E-6,0
ONEWEB-0443,2022-012R,2026-06-05T01:46:54.064704,13.17648632,.00019727,87.9140,8.2892,73.1205,287.0142,0,U,51637,999,21212,-.26365343E-4,.3E-7,0
ONEWEB-0444,2022-012S,2026-06-04T17:25:33.783744,13.10376772,.0001881,87.8853,38.7517,66.8079,293.3246,0,U,51638,999,20770,.92779E-3,.337E-5,0
ONEWEB-0445,2022-012T,2026-06-04T17:56:38.713920,13.10371392,.0001731,87.8851,38.7316,90.6056,269.5270,0,U,51639,999,20771,.16716E-2,.596E-5,0
ONEWEB-0446,2022-012U,2026-06-04T15:33:12.393504,13.10378199,.00017777,87.8852,38.7805,85.9059,274.2271,0,U,51640,999,20768,.64855343E-3,.239E-5,0
ONEWEB-0448,2022-012V,2026-06-05T00:50:10.355712,13.10375463,.00018158,87.8845,38.7011,77.6765,282.4565,0,U,51641,999,20770,.92898366E-3,.337E-5,0
ONEWEB-0449,2022-012W,2026-06-04T15:47:34.116864,13.10375933,.00022643,87.8850,38.7593,80.3877,279.7506,0,U,51642,999,20766,.17312101E-2,.617E-5,0
ONEWEB-0451,2022-012X,2026-06-05T06:53:05.536032,13.17649679,.00020912,87.9153,8.2092,84.2857,275.8513,0,U,51643,999,21209,.95317225E-4,.5E-6,0
ONEWEB-0452,2022-012Y,2026-06-04T23:33:15.076800,13.17652488,.00019468,87.9140,8.3078,79.0929,281.0422,0,U,51644,999,21206,.37723625E-3,.159E-5,0
ONEWEB-0456,2022-012AA,2026-06-04T16:01:52.824864,13.10377917,.00016521,87.8851,38.7453,79.9572,280.1742,0,U,51646,999,20770,.18858689E-2,.671E-5,0
ONEWEB-0457,2022-012AB,2026-06-04T17:18:10.132704,13.10374721,.00019275,87.8850,38.7535,90.3904,269.7444,0,U,51647,999,20771,-.53455944E-3,-.174E-5,0
ONEWEB-0458,2022-012AC,2026-06-04T15:59:34.123488,13.10383484,.00020314,87.8864,38.7489,74.9655,285.1697,0,U,51648,999,20766,.67361412E-2,.2365E-4,0
ONEWEB-0461,2022-012AD,2026-06-05T05:32:52.636992,13.17647935,.00018798,87.9149,8.2350,90.0131,270.1216,0,U,51649,999,21231,.77419955E-4,.43E-6,0
ONEWEB-0463,2022-012AE,2026-06-05T01:27:28.244448,13.17650640,.00019063,87.9143,8.2921,93.6966,266.4384,0,U,51650,999,21207,.22886044E-3,.102E-5,0
ONEWEB-0464,2022-012AF,2026-06-04T15:54:44.433792,13.10374440,.00017275,87.8842,38.7749,72.0276,288.1040,0,U,51651,999,20768,.19730777E-2,.701E-5,0
ONEWEB-0468,2022-012AG,2026-06-05T03:04:01.577856,13.10374373,.00017483,87.8835,38.6770,69.8858,290.2458,0,U,51652,999,20772,.28692895E-2,.1014E-4,0
