ONEWEB-0410             
1 51622U 22012A   26156.29529305  .00000027  00000+0  35059-4 0  9992
2 51622  87.9153   8.2217 0003163  86.0938 274.0555 13.17647764212131
ONEWEB-0411             
1 51623U 22012B   26155.64307290 -.00000049  00000+0 -17604-3 0  9999
2 51623  87.8849  38.7646 0001398  92.1017 268.0270 13.10377974207644
ONEWEB-0415             
1 51624U 22012C   26155.71611196 -.00000181  00000+0 -55422-3 0  9998
2 51624  87.8851  38.7497 0001692  94.6857 265.4464 13.10378067207659
ONEWEB-0416             
1 51625U 22012D   26156.03319325  .00000161  00000+0  42617-3 0  9992
2 51625  87.8847  38.7041 0001905  96.0178 264.1167 13.10387310207735
ONEWEB-0422             
1 51626U 22012E   26156.07761719  .00000037  00000+0  62203-4 0  9991
2 51626  87.9146   8.2662 0001411  66.2134 293.9146 13.17650248212219
ONEWEB-0423             
1 51627U 22012F   26156.07087789  .00000018  00000+0  12959-4 0  9992
2 51627  87.9144   8.2740 0001926  84.0363 276.0988 13.17649479212106
ONEWEB-0425             
1 51628U 22012G   26155.66136569  .00000679  00000+0  19089-2 0  9990
2 51628  87.8841  38.7616 0002181  84.4921 275.6455 13.10374955207686
ONEWEB-0428             
1 51629U 22012H   26155.71777074 -.00000205  00000+0 -62240-3 0  9994
2 51629  87.8848  38.7583 0001774  85.4669 274.6661 13.10378341207652
ONEWEB-0431             
1 51630U 22012J   26156.06954466  .00000017  00000+0  13378-4 0  9995
2 51630  87.8836  38.6804 0001293  93.4714 266.6562 13.10370095207752
ONEWEB-0434             
1 51631U 22012K   26155.66481242  .00000683  00000+0  19190-2 0  9993
2 51631  87.8843  38.7856 0002471  80.8376 279.3031 13.10374149207680
ONEWEB-0435             
1 51632U 22012L   26155.67293330  .00003182  00000+0  90730-2 0  9990
2 51632  87.8845  38.7720 0001459  72.8481 287.2806 13.10396385207679
ONEWEB-0436             
1 51633U 22012M   26156.29023095 -.00000031  00000+0 -11284-3 0  9999
2 51633  87.9152   8.2116 0001619  85.4948 274.6368 13.17650764212118
ONEWEB-0438             
1 51634U 22012N   26155.73272883  .00000658  00000+0  18476-2 0  9991
2 51634  87.8849  38.7624 0002003  82.0585 278.0769 13.10376671207719
ONEWEB-0439             
1 51635U 22012P   26155.65969186  .00000704  00000+0  19790-2 0  9994
2 51635  87.8848  38.7626 0001842  80.1331 280.0004 13.10375722207686
ONEWEB-0442             
1 51636U 22012Q   26156.28264460  .00000052  00000+0  10177-3 0  9995
2 51636  87.9143   8.2466 0002401  88.9625 271.1781 13.17648713212100
ONEWEB-0443             
1 51637U 22012R   26156.07423686  .00000003  00000+0 -26365-4 0  9994
2 51637  87.9140   8.2892 0001972  73.1205 287.0142 13.17648632212122
ONEWEB-0444             
1 51638U 22012S   26155.72608546  .00000337  00000+0  92779-3 0  9996
2 51638  87.8853  38.7517 0001881  66.8079 293.3246 13.10376772207701
ONEWEB-0445             
1 51639U 22012T   26155.74767030  .00000596  00000+0  16716-2 0  9996
2 51639  87.8851  38.7316 0001731  90.6056 269.5270 13.10371392207717
ONEWEB-0446             
1 51640U 22012U   26155.64806011  .00000239  00000+0  64855-3 0  9992
2 51640  87.8852  38.7805 0001777  85.9059 274.2271 13.10378199207685
ONEWEB-0448             
1 51641U 22012V   26156.03484208  .00000337  00000+0  92898-3 0  9994
2 51641  87.8845  38.7011 0001815  77.6765 282.4565 13.10375463207703
ONEWEB-0449             
1 51642U 22012W   26155.65803376  .00000617  00000+0  17312-2 0  9991
2 51642  87.8850  38.7593 0002264  80.3877 279.7506 13.10375933207660
ONEWEB-0451             
1 51643U 22012X   26156.28686963  .00000050  00000+0  95317-4 0  9997
2 51643  87.9153   8.2092 0002091  84.2857 275.8513 13.17649679212099
ONEWEB-0452             
1 51644U 22012Y   26155.98142450  .00000159  00000+0  37724-3 0  9999
2 51644  87.9140   8.3078 0001946  79.0929 281.0422 13.17652488212068
ONEWEB-0456             
1 51646U 22012AA  26155.66797251  .00000671  00000+0  18859-2 0  9997
2 51646  87.8851  38.7453 0001652  79.9572 280.1742 13.10377917207703
ONEWEB-0457             
1 51647U 22012AB  26155.72095061 -.00000174  00000+0 -53456-3 0  9998
2 51647  87.8850  38.7535 0001927  90.3904 269.7444 13.10374721207718
ONEWEB-0458             
1 51648U 22012AC  26155.66636717  .00002365  00000+0  67361-2 0  9992
2 51648  87.8864  38.7489 0002031  74.9655 285.1697 13.10383484207662
ONEWEB-0461             
1 51649U 22012AD  26156.23116478  .00000043  00000+0  77420-4 0  9994
2 51649  87.9149   8.2350 0001879  90.0131 270.1216 13.17647935212316
ONEWEB-0463             
1 51650U 22012AE  26156.06074357  .00000102  00000+0  22886-3 0  9997
2 51650  87.9143   8.2921 0001906  93.6966 266.4384 13.17650640212076
ONEWEB-0464             
1 51651U 22012AF  26155.66301428  .00000701  00000+0  19731-2 0  9994
2 51651  87.8842  38.7749 0001727  72.0276 288.1040 13.10374440207689
ONEWEB-0468             
1 51652U 22012AG  26156.12779604  .00001014  00000+0  28693-2 0  9997
2 51652  87.8835  38.6770 0001748  69.8858 290.2458 13.10374373207725
